{
  "type": "FeatureCollection",
  "features": [
    {
      "type": "Feature",
      "properties": {
        "norad_id": 34036,
        "name": "COSMOS 2251 DEB",
        "group": "cosmos-2251-debris",
        "lat": 50.696389199266356,
        "lon": -72.77381048756199,
        "alt_km": 568.5921515145737,
        "timestamp": "2025-12-23T09:49:07.476515+00:00",
        "meta_object_name": "COSMOS 2251 DEB",
        "meta_object_id": "1993-036HX",
        "meta_epoch": "2025-12-22T04:21:41.137632",
        "meta_mean_motion": 14.95669086,
        "meta_eccentricity": 0.00105023,
        "meta_inclination": 74.0197,
        "meta_ra_of_asc_node": 130.1973,
        "meta_arg_of_pericenter": 159.13,
        "meta_mean_anomaly": 201.0316,
        "meta_ephemeris_type": 0,
        "meta_classification_type": "U",
        "meta_norad_cat_id": 34036,
        "meta_element_set_no": 999,
        "meta_rev_at_epoch": 88711,
        "meta_bstar": 0.0044991869,
        "meta_mean_motion_dot": 0.00050435,
        "meta_mean_motion_ddot": 0,
        "tle_line1": "1 34036U 93036HX  25356.18172613  .00050435  00000+0  44992-2 0  9993",
        "tle_line2": "2 34036  74.0197 130.1973 0010502 159.1300 201.0316 14.95669086887119"
      },
      "geometry": {
        "type": "Point",
        "coordinates": [
          -72.77381048756199,
          50.696389199266356
        ]
      }
    },
    {
      "type": "Feature",
      "properties": {
        "norad_id": 34037,
        "name": "COSMOS 2251 DEB",
        "group": "cosmos-2251-debris",
        "lat": 15.341444330792534,
        "lon": 35.41488281227722,
        "alt_km": 758.7004649285118,
        "timestamp": "2025-12-23T09:49:07.476531+00:00",
        "meta_object_name": "COSMOS 2251 DEB",
        "meta_object_id": "1993-036HY",
        "meta_epoch": "2025-12-22T18:40:59.644704",
        "meta_mean_motion": 14.34689065,
        "meta_eccentricity": 0.0051802,
        "meta_inclination": 74.0511,
        "meta_ra_of_asc_node": 32.069,
        "meta_arg_of_pericenter": 78.9306,
        "meta_mean_anomaly": 281.7666,
        "meta_ephemeris_type": 0,
        "meta_classification_type": "U",
        "meta_norad_cat_id": 34037,
        "meta_element_set_no": 999,
        "meta_rev_at_epoch": 87861,
        "meta_bstar": 0.00037361362,
        "meta_mean_motion_dot": 1.048e-05,
        "meta_mean_motion_ddot": 0,
        "tle_line1": "1 34037U 93036HY  25356.77846811  .00001048  00000+0  37361-3 0  9996",
        "tle_line2": "2 34037  74.0511  32.0690 0051802  78.9306 281.7666 14.34689065878618"
      },
      "geometry": {
        "type": "Point",
        "coordinates": [
          35.41488281227722,
          15.341444330792534
        ]
      }
    },
    {
      "type": "Feature",
      "properties": {
        "norad_id": 34040,
        "name": "COSMOS 2251 DEB",
        "group": "cosmos-2251-debris",
        "lat": -55.57269163173489,
        "lon": -106.94233303723523,
        "alt_km": 1133.655527836153,
        "timestamp": "2025-12-23T09:49:07.476541+00:00",
        "meta_object_name": "COSMOS 2251 DEB",
        "meta_object_id": "1993-036JB",
        "meta_epoch": "2025-12-22T13:20:15.736416",
        "meta_mean_motion": 13.68390143,
        "meta_eccentricity": 0.03433632,
        "meta_inclination": 73.9556,
        "meta_ra_of_asc_node": 49.6433,
        "meta_arg_of_pericenter": 1.0234,
        "meta_mean_anomaly": 359.1507,
        "meta_ephemeris_type": 0,
        "meta_classification_type": "U",
        "meta_norad_cat_id": 34040,
        "meta_element_set_no": 999,
        "meta_rev_at_epoch": 83734,
        "meta_bstar": 0.0006657497,
        "meta_mean_motion_dot": 8.36e-06,
        "meta_mean_motion_ddot": 0,
        "tle_line1": "1 34040U 93036JB  25356.55573769  .00000836  00000+0  66575-3 0  9998",
        "tle_line2": "2 34040  73.9556  49.6433 0343363   1.0234 359.1507 13.68390143837342"
      },
      "geometry": {
        "type": "Point",
        "coordinates": [
          -106.94233303723523,
          -55.57269163173489
        ]
      }
    },
    {
      "type": "Feature",
      "properties": {
        "norad_id": 34045,
        "name": "COSMOS 2251 DEB",
        "group": "cosmos-2251-debris",
        "lat": 36.27816310899257,
        "lon": -56.5647710895452,
        "alt_km": 758.4862992255457,
        "timestamp": "2025-12-23T09:49:07.476551+00:00",
        "meta_object_name": "COSMOS 2251 DEB",
        "meta_object_id": "1993-036JG",
        "meta_epoch": "2025-12-22T20:32:39.925824",
        "meta_mean_motion": 14.34074204,
        "meta_eccentricity": 0.0026081,
        "meta_inclination": 74.0396,
        "meta_ra_of_asc_node": 292.3213,
        "meta_arg_of_pericenter": 13.0564,
        "meta_mean_anomaly": 50.5751,
        "meta_ephemeris_type": 0,
        "meta_classification_type": "U",
        "meta_norad_cat_id": 34045,
        "meta_element_set_no": 999,
        "meta_rev_at_epoch": 88178,
        "meta_bstar": 8.7116115e-05,
        "meta_mean_motion_dot": 2.18e-06,
        "meta_mean_motion_ddot": 0,
        "tle_line1": "1 34045U 93036JG  25356.85601766  .00000218  00000+0  87116-4 0  9994",
        "tle_line2": "2 34045  74.0396 292.3213 0026081  13.0564  50.5751 14.34074204881789"
      },
      "geometry": {
        "type": "Point",
        "coordinates": [
          -56.5647710895452,
          36.27816310899257
        ]
      }
    },
    {
      "type": "Feature",
      "properties": {
        "norad_id": 34046,
        "name": "COSMOS 2251 DEB",
        "group": "cosmos-2251-debris",
        "lat": 33.30557790156086,
        "lon": 159.71278233726645,
        "alt_km": 719.7456086639058,
        "timestamp": "2025-12-23T09:49:07.476562+00:00",
        "meta_object_name": "COSMOS 2251 DEB",
        "meta_object_id": "1993-036JH",
        "meta_epoch": "2025-12-22T10:28:09.356160",
        "meta_mean_motion": 14.46546559,
        "meta_eccentricity": 0.00744767,
        "meta_inclination": 74.0394,
        "meta_ra_of_asc_node": 352.3665,
        "meta_arg_of_pericenter": 72.8985,
        "meta_mean_anomaly": 46.9875,
        "meta_ephemeris_type": 0,
        "meta_classification_type": "U",
        "meta_norad_cat_id": 34046,
        "meta_element_set_no": 999,
        "meta_rev_at_epoch": 87966,
        "meta_bstar": 0.0012595039,
        "meta_mean_motion_dot": 4.673e-05,
        "meta_mean_motion_ddot": 0,
        "tle_line1": "1 34046U 93036JH  25356.43621940  .00004673  00000+0  12595-2 0  9991",
        "tle_line2": "2 34046  74.0394 352.3665 0074476  72.8985  46.9875 14.46546559879667"
      },
      "geometry": {
        "type": "Point",
        "coordinates": [
          159.71278233726645,
          33.30557790156086
        ]
      }
    },
    {
      "type": "Feature",
      "properties": {
        "norad_id": 34050,
        "name": "COSMOS 2251 DEB",
        "group": "cosmos-2251-debris",
        "lat": -63.53135978146745,
        "lon": -153.2951427651393,
        "alt_km": 1064.5843946649366,
        "timestamp": "2025-12-23T09:49:07.476572+00:00",
        "meta_object_name": "COSMOS 2251 DEB",
        "meta_object_id": "1993-036JM",
        "meta_epoch": "2025-12-22T10:51:58.057920",
        "meta_mean_motion": 13.96202564,
        "meta_eccentricity": 0.02147395,
        "meta_inclination": 74.0882,
        "meta_ra_of_asc_node": 353.3904,
        "meta_arg_of_pericenter": 55.2191,
        "meta_mean_anomaly": 68.8558,
        "meta_ephemeris_type": 0,
        "meta_classification_type": "U",
        "meta_norad_cat_id": 34050,
        "meta_element_set_no": 999,
        "meta_rev_at_epoch": 85567,
        "meta_bstar": 0.00071337825,
        "meta_mean_motion_dot": 1.169e-05,
        "meta_mean_motion_ddot": 0,
        "tle_line1": "1 34050U 93036JM  25356.45275530  .00001169  00000+0  71338-3 0  9996",
        "tle_line2": "2 34050  74.0882 353.3904 0214739  55.2191  68.8558 13.96202564855678"
      },
      "geometry": {
        "type": "Point",
        "coordinates": [
          -153.2951427651393,
          -63.53135978146745
        ]
      }
    },
    {
      "type": "Feature",
      "properties": {
        "norad_id": 34053,
        "name": "COSMOS 2251 DEB",
        "group": "cosmos-2251-debris",
        "lat": -34.13561597837318,
        "lon": 56.3128300033174,
        "alt_km": 1366.9554331172667,
        "timestamp": "2025-12-23T09:49:07.476582+00:00",
        "meta_object_name": "COSMOS 2251 DEB",
        "meta_object_id": "1993-036JQ",
        "meta_epoch": "2025-12-22T09:36:54.068256",
        "meta_mean_motion": 13.491756,
        "meta_eccentricity": 0.04227624,
        "meta_inclination": 73.8432,
        "meta_ra_of_asc_node": 226.6036,
        "meta_arg_of_pericenter": 13.5682,
        "meta_mean_anomaly": 347.6376,
        "meta_ephemeris_type": 0,
        "meta_classification_type": "U",
        "meta_norad_cat_id": 34053,
        "meta_element_set_no": 999,
        "meta_rev_at_epoch": 82814,
        "meta_bstar": 0.00057141905,
        "meta_mean_motion_dot": 6.02e-06,
        "meta_mean_motion_ddot": 0,
        "tle_line1": "1 34053U 93036JQ  25356.40062579  .00000602  00000+0  57142-3 0  9999",
        "tle_line2": "2 34053  73.8432 226.6036 0422762  13.5682 347.6376 13.49175600828142"
      },
      "geometry": {
        "type": "Point",
        "coordinates": [
          56.3128300033174,
          -34.13561597837318
        ]
      }
    }
  ]
}